STARLINK-33648          
1 63371U 25063J   25110.91668981  .00029353  00000+0  53394-3 0  9991
2 63371  53.1602 123.2408 0001200  89.5951 109.0818 15.49303239  5224
STARLINK-33614          
1 63372U 25063K   25110.91668981  .00033254  00000+0  60360-3 0  9998
2 63372  53.1602 123.2370 0001205  90.0801 110.5145 15.49300385  5228
STARLINK-33617          
1 63373U 25063L   25110.91668981  .00034478  00000+0  62551-3 0  9992
2 63373  53.1602 123.2329 0001243  86.3808 116.1331 15.49295932  5141
STARLINK-33618          
1 63374U 25063M   25110.91668981  .00035867  00000+0  65010-3 0  9999
2 63374  53.1602 123.2290 0001205  90.7022 113.7213 15.49303501  5227
STARLINK-33621          
1 63375U 25063N   25110.91668981  .00034997  00000+0  63465-3 0  9995
2 63375  53.1602 123.2256 0001191  90.0548 116.2904 15.49301253  5148
STARLINK-33539          
1 63376U 25063P   25107.53529307  .00054594  00000+0  54921-3 0  9990
2 63376  53.1592 138.7651 0002463 288.3803  71.6944 15.64922863  4618
STARLINK-33634          
1 63377U 25063Q   25110.91668981  .00067937  00000+0  12198-2 0  9993
2 63377  53.1601 123.2166 0001156  85.8490 124.3257 15.49289595  5222
STARLINK-33640          
1 63378U 25063R   25110.91668981  .00037792  00000+0  68444-3 0  9996
2 63378  53.1602 123.2132 0001189  92.3566 119.7372 15.49301521  5220
STARLINK-33636          
1 63379U 25063S   25110.91668981  .00034944  00000+0  63370-3 0  9996
2 63379  53.1602 123.2090 0001226  92.1298 121.8805 15.49301931  5125
STARLINK-33653          
1 63380U 25063T   25110.91668981  .00013346  00000+0  24762-3 0  9993
2 63380  53.1601 123.2047 0001212  90.6554 125.2780 15.49308129  5150
STARLINK-33643          
1 63381U 25063U   25110.91668981  .00029569  00000+0  53781-3 0  9991
2 63381  53.1602 123.2011 0001224  86.6155 131.2308 15.49302305  5230
STARLINK-33633          
1 63382U 25063V   25110.91668981 -.00031006  00000+0 -55085-3 0  9992
2 63382  53.1602 123.1921 0001226  98.8375 122.8206 15.49348856  5112
STARLINK-33748          
1 63383U 25063W   25110.91668981  .00061038  00000+0  10976-2 0  9998
2 63383  53.1599 123.0061 0001441  97.2147 213.8748 15.49292214  5221
STARLINK-33658          
1 63384U 25063X   25110.91668981  .00032181  00000+0  58444-3 0  9999
2 63384  53.1602 123.1879 0001188  97.0405 126.5571 15.49301138  5228
STARLINK-33616          
1 63385U 25063Y   25110.91668981  .00030164  00000+0  54844-3 0  9999
2 63385  53.1601 123.1805 0001203  87.2239 140.2067 15.49301878  5124
STARLINK-33571          
1 63386U 25063Z   25110.91668981 -.01482060  00000+0 -33480-1 0  9990
2 63386  53.1601 122.4306 0001273  90.7188 141.1180 15.45582396  5142
STARLINK-33533          
1 63387U 25063AA  25110.91668981  .00028334  00000+0  51576-3 0  9996
2 63387  53.1601 123.1693 0001191  86.5361 146.6458 15.49303207  5150
STARLINK-33629          
1 63388U 25063AB  25110.91668981  .00068209  00000+0  12264-2 0  9992
2 63388  53.1601 123.1729 0001213  97.7950 133.5535 15.49247891  5229
STARLINK-33656          
1 63389U 25063AC  25110.91668981  .00036268  00000+0  65800-3 0  9998
2 63389  53.1602 123.1847 0001197  93.5238 132.0523 15.49271304  5234
STARLINK-33531          
1 63399U 25065A   25110.91668981 -.01443761  00000+0 -15767-1 0  9999
2 63399  42.9998 140.7744 0001539 269.5044 351.9819 15.65237168  4114
STARLINK-33652          
1 63400U 25065B   25110.91668981 -.01443289  00000+0 -15761-1 0  9991
2 63400  42.9998 140.7700 0001599 268.3516 355.0515 15.65237024  4160
STARLINK-33707          
1 63401U 25065C   25110.91668981 -.01444660  00000+0 -15778-1 0  9994
2 63401  42.9998 140.7648 0001449 268.5939 356.7263 15.65237893  3887
STARLINK-33668          
1 63402U 25065D   25110.91668981 -.01444038  00000+0 -15770-1 0  9996
2 63402  42.9998 140.7599 0001537 269.5996 357.6371 15.65237765  4110
STARLINK-33676          
1 63403U 25065E   25110.91668981 -.01439454  00000+0 -15717-1 0  9994
2 63403  42.9998 140.7551 0001593 269.8204 359.3372 15.65233030  4117
STARLINK-33711          
1 63404U 25065F   25110.91668981 -.01441209  00000+0 -15738-1 0  9999
2 63404  42.9998 140.7450 0001539 264.7497   8.2427 15.65234024  4164
STARLINK-33708          
1 63405U 25065G   25110.91668981 -.01443317  00000+0 -15762-1 0  9999
2 63405  42.9998 140.7502 0001581 266.1001   4.9732 15.65236169  4161
STARLINK-33690          
1 63406U 25065H   25110.91668981 -.01443433  00000+0 -15763-1 0  9990
2 63406  42.9998 140.7406 0001615 266.3463   8.5606 15.65236479  4161
STARLINK-33694          
1 63407U 25065J   25110.91668981 -.01418099  00000+0 -14287-1 0  9991
2 63407  42.9998 140.5510 0001691 275.0294  75.2214 15.67167797  4163
STARLINK-33692          
1 63408U 25065K   25110.91668981 -.01421698  00000+0 -14326-1 0  9995
2 63408  42.9997 140.5467 0001642 274.3158  77.8511 15.67170360  4169
STARLINK-33693          
1 63409U 25065L   25110.91668981 -.01421791  00000+0 -14327-1 0  9991
2 63409  42.9997 140.5562 0001683 272.8294  75.5040 15.67170055  4113
