OBJECT_NAME,OBJECT_ID,EPOCH,MEAN_MOTION,ECCENTRICITY,INCLINATION,RA_OF_ASC_NODE,ARG_OF_PERICENTER,MEAN_ANOMALY,EPHEMERIS_TYPE,CLASSIFICATION_TYPE,NORAD_CAT_ID,ELEMENT_SET_NO,REV_AT_EPOCH,BSTAR,MEAN_MOTION_DOT,MEAN_MOTION_DDOT
STARLINK-33648,2025-063J,2025-04-20T22:00:01.999584,15.49303239,.00012,53.1602,123.2408,89.5951,109.0818,0,U,63371,999,522,.53394E-3,.29353E-3,0
STARLINK-33614,2025-063K,2025-04-20T22:00:01.999584,15.49300385,.0001205,53.1602,123.2370,90.0801,110.5145,0,U,63372,999,522,.6036E-3,.33254E-3,0
STARLINK-33617,2025-063L,2025-04-20T22:00:01.999584,15.49295932,.0001243,53.1602,123.2329,86.3808,116.1331,0,U,63373,999,514,.62551E-3,.34478E-3,0
STARLINK-33618,2025-063M,2025-04-20T22:00:01.999584,15.49303501,.0001205,53.1602,123.2290,90.7022,113.7213,0,U,63374,999,522,.6501E-3,.35867E-3,0
STARLINK-33621,2025-063N,2025-04-20T22:00:01.999584,15.49301253,.0001191,53.1602,123.2256,90.0548,116.2904,0,U,63375,999,514,.63465E-3,.34997E-3,0
STARLINK-33539,2025-063P,2025-04-17T12:50:49.321248,15.64922863,.0002463,53.1592,138.7651,288.3803,71.6944,0,U,63376,999,461,.54921E-3,.54594E-3,0
STARLINK-33634,2025-063Q,2025-04-20T22:00:01.999584,15.49289595,.0001156,53.1601,123.2166,85.8490,124.3257,0,U,63377,999,522,.12198E-2,.67937E-3,0
STARLINK-33640,2025-063R,2025-04-20T22:00:01.999584,15.49301521,.0001189,53.1602,123.2132,92.3566,119.7372,0,U,63378,999,522,.68444E-3,.37792E-3,0
STARLINK-33636,2025-063S,2025-04-20T22:00:01.999584,15.49301931,.0001226,53.1602,123.2090,92.1298,121.8805,0,U,63379,999,512,.6337E-3,.34944E-3,0
STARLINK-33653,2025-063T,2025-04-20T22:00:01.999584,15.49308129,.0001212,53.1601,123.2047,90.6554,125.2780,0,U,63380,999,515,.24762E-3,.13346E-3,0
STARLINK-33643,2025-063U,2025-04-20T22:00:01.999584,15.49302305,.0001224,53.1602,123.2011,86.6155,131.2308,0,U,63381,999,523,.53781E-3,.29569E-3,0
STARLINK-33633,2025-063V,2025-04-20T22:00:01.999584,15.49348856,.0001226,53.1602,123.1921,98.8375,122.8206,0,U,63382,999,511,-.55085E-3,-.31006E-3,0
STARLINK-33748,2025-063W,2025-04-20T22:00:01.999584,15.49292214,.0001441,53.1599,123.0061,97.2147,213.8748,0,U,63383,999,522,.10976E-2,.61038E-3,0
STARLINK-33658,2025-063X,2025-04-20T22:00:01.999584,15.49301138,.0001188,53.1602,123.1879,97.0405,126.5571,0,U,63384,999,522,.58444E-3,.32181E-3,0
STARLINK-33616,2025-063Y,2025-04-20T22:00:01.999584,15.49301878,.0001203,53.1601,123.1805,87.2239,140.2067,0,U,63385,999,512,.54844E-3,.30164E-3,0
STARLINK-33571,2025-063Z,2025-04-20T22:00:01.999584,15.45582396,.0001273,53.1601,122.4306,90.7188,141.1180,0,U,63386,999,514,-.3348E-1,-.148206E-1,0
STARLINK-33533,2025-063AA,2025-04-20T22:00:01.999584,15.49303207,.0001191,53.1601,123.1693,86.5361,146.6458,0,U,63387,999,515,.51576E-3,.28334E-3,0
STARLINK-33629,2025-063AB,2025-04-20T22:00:01.999584,15.49247891,.0001213,53.1601,123.1729,97.7950,133.5535,0,U,63388,999,522,.12264E-2,.68209E-3,0
STARLINK-33656,2025-063AC,2025-04-20T22:00:01.999584,15.49271304,.0001197,53.1602,123.1847,93.5238,132.0523,0,U,63389,999,523,.658E-3,.36268E-3,0
STARLINK-33531,2025-065A,2025-04-20T22:00:01.999584,15.65237168,.0001539,42.9998,140.7744,269.5044,351.9819,0,U,63399,999,411,-.15767E-1,-.1443761E-1,0
STARLINK-33652,2025-065B,2025-04-20T22:00:01.999584,15.65237024,.0001599,42.9998,140.7700,268.3516,355.0515,0,U,63400,999,416,-.15761E-1,-.1443289E-1,0
STARLINK-33707,2025-065C,2025-04-20T22:00:01.999584,15.65237893,.0001449,42.9998,140.7648,268.5939,356.7263,0,U,63401,999,388,-.15778E-1,-.144466E-1,0
STARLINK-33668,2025-065D,2025-04-20T22:00:01.999584,15.65237765,.0001537,42.9998,140.7599,269.5996,357.6371,0,U,63402,999,411,-.1577E-1,-.1444038E-1,0
STARLINK-33676,2025-065E,2025-04-20T22:00:01.999584,15.65233030,.0001593,42.9998,140.7551,269.8204,359.3372,0,U,63403,999,411,-.15717E-1,-.1439454E-1,0
STARLINK-33711,2025-065F,2025-04-20T22:00:01.999584,15.65234024,.0001539,42.9998,140.7450,264.7497,8.2427,0,U,63404,999,416,-.15738E-1,-.1441209E-1,0
STARLINK-33708,2025-065G,2025-04-20T22:00:01.999584,15.65236169,.0001581,42.9998,140.7502,266.1001,4.9732,0,U,63405,999,416,-.15762E-1,-.1443317E-1,0
STARLINK-33690,2025-065H,2025-04-20T22:00:01.999584,15.65236479,.0001615,42.9998,140.7406,266.3463,8.5606,0,U,63406,999,416,-.15763E-1,-.1443433E-1,0
STARLINK-33694,2025-065J,2025-04-20T22:00:01.999584,15.67167797,.0001691,42.9998,140.5510,275.0294,75.2214,0,U,63407,999,416,-.14287E-1,-.1418099E-1,0
STARLINK-33692,2025-065K,2025-04-20T22:00:01.999584,15.67170360,.0001642,42.9997,140.5467,274.3158,77.8511,0,U,63408,999,416,-.14326E-1,-.1421698E-1,0
STARLINK-33693,2025-065L,2025-04-20T22:00:01.999584,15.67170055,.0001683,42.9997,140.5562,272.8294,75.5040,0,U,63409,999,411,-.14327E-1,-.1421791E-1,0
